NORAD_CAT_ID,OBJECT_NAME,OBJECT_TYPE,EPOCH,MEAN_MOTION,ECCENTRICITY,INCLINATION,RA_OF_ASC_NODE,ARG_OF_PERICENTER,MEAN_ANOMALY,BSTAR,MEAN_MOTION_DOT,MEAN_MOTION_DDOT,TLE_LINE0,TLE_LINE1,TLE_LINE2,SEMIMAJOR_AXIS,PERIOD,APOGEE,PERIGEE,DECAYED
53249.0,STARLINK-4128,PAYLOAD,2022-09-28 22:00:00,15.13709645,0.0001738,53.2172,80.5341,49.95,147.4707,-0.062829,-0.01061051,0.0,0 STARLINK-4128,1 53249U 22086H   22271.91667824 -.01061051  00000-0 -62829-1 0  9992,2 53249  53.2172  80.5341 0001738  49.9500 147.4707 15.13709645  1307,6903.036,95.131,526.1,523.701,0.0
53249.0,STARLINK-4128,PAYLOAD,2022-09-29 14:00:01,15.1222763,0.000158,53.2173,77.5136,50.0451,180.4393,-0.068898,-0.01111833,0.0,0 STARLINK-4128,1 53249U 22086H   22272.58334491 -.01111833  00000-0 -68898-1 0  9993,2 53249  53.2173  77.5136 0001580  50.0451 180.4393 15.12227630  1305,6907.545,95.224,530.501,528.319,0.0
53249.0,STARLINK-4128,PAYLOAD,2022-09-29 22:00:00,15.11491334,0.0001595999999999,53.2172,76.0088,46.9841,198.659,-0.072435,-0.01142499,0.0,0 STARLINK-4128,1 53249U 22086H   22272.91667824 -.01142499  00000-0 -72435-1 0  9993,2 53249  53.2172  76.0088 0001596  46.9841 198.6590 15.11491334  1301,6909.788000000001,95.27,532.756,530.55,0.0
53249.0,STARLINK-4128,PAYLOAD,2022-09-30 14:00:01,15.09912786,0.0001625,53.2176,72.9996,42.817,230.4489,-0.067014,-0.01020667,0.0,0 STARLINK-4128,1 53249U 22086H   22273.58334491 -.01020667  00000-0 -67014-1 0  9997,2 53249  53.2176  72.9996 0001625  42.8170 230.4489 15.09912786  1309,6914.603,95.37,537.592,535.345,0.0
53249.0,STARLINK-4128,PAYLOAD,2022-09-30 16:00:00,15.09636448,0.0001742,53.2175,72.6244,41.6456,324.8389,-0.05281,-0.00802692,0.0,0 STARLINK-4128,1 53249U 22086H   22273.66667824 -.00802692  00000-0 -52810-1 0  9998,2 53249  53.2175  72.6244 0001742  41.6456 324.8389 15.09636448 11266,6915.446999999999,95.387,538.5169999999998,536.107,0.0
53249.0,STARLINK-4128,PAYLOAD,2022-09-30 22:00:00,15.09141979,0.0001966,53.2173,71.5018,32.3901,253.3003,-0.027862,-0.00421947,0.0,0 STARLINK-4128,1 53249U 22086H   22273.91667824 -.00421947  00000-0 -27862-1 0  9995,2 53249  53.2173  71.5018 0001966  32.3901 253.3003 15.09141979  1304,6916.958000000001,95.418,540.182,537.4630000000002,0.0
53249.0,STARLINK-4128,PAYLOAD,2022-10-01 06:00:00,15.08825891,0.0001554999999999,53.2184,70.0122,41.3585,255.9802,0.0041208999999999,0.00065884,0.0,0 STARLINK-4128,1 53249U 22086H   22274.25001157  .00065884  00000-0  41209-2 0  9998,2 53249  53.2184  70.0122 0001555  41.3585 255.9802 15.08825891 11350,6917.924,95.438,540.864,538.7130000000002,0.0
53249.0,STARLINK-4128,PAYLOAD,2022-10-01 14:00:01,15.08871112,0.0001628,53.2185,68.5166,43.0127,265.9149,-0.001066,-0.00017228,0.0,0 STARLINK-4128,1 53249U 22086H   22274.58334491 -.00017228  00000-0 -10660-2 0  9992,2 53249  53.2185  68.5166 0001628  43.0127 265.9149 15.08871112  1309,6917.785,95.436,540.7769999999998,538.524,0.0
53249.0,STARLINK-4128,PAYLOAD,2022-10-01 22:00:00,15.08873273,0.0001818,53.2181,67.0213,39.7561,280.796,-0.0047818,-0.00075662,0.0,0 STARLINK-4128,1 53249U 22086H   22274.91667824 -.00075662  00000-0 -47818-2 0  9999,2 53249  53.2181  67.0213 0001818  39.7561 280.7960 15.08873273  1303,6917.779,95.435,540.901,538.386,0.0
53249.0,STARLINK-4128,PAYLOAD,2022-10-02 06:00:00,15.08761131,0.0001719,53.2182,65.5233,48.8891,283.2813,0.0045718999999999,0.00073071,0.0,0 STARLINK-4128,1 53249U 22086H   22275.25001157  .00073071  00000-0  45719-2 0  9996,2 53249  53.2182  65.5233 0001719  48.8891 283.2813 15.08761131 11503,6918.121,95.443,541.1759999999998,538.797,0.0
53249.0,STARLINK-4128,PAYLOAD,2022-10-02 14:00:01,15.088401800000002,0.0001843,53.2183,64.0281,49.073,294.617,-0.0013610999999999,-0.00021885,0.0,0 STARLINK-4128,1 53249U 22086H   22275.58334491 -.00021885  00000-0 -13611-2 0  9996,2 53249  53.2183  64.0281 0001843  49.0730 294.6170 15.08840180  1305,6917.88,95.438,541.02,538.47,0.0
53249.0,STARLINK-4128,PAYLOAD,2022-10-02 22:00:00,15.08828194,0.0001947,53.2177,62.5325,44.3052,310.976,0.0023742,0.00037688,0.0,0 STARLINK-4128,1 53249U 22086H   22275.91667824  .00037688  00000-0  23742-2 0  9994,2 53249  53.2177  62.5325 0001947  44.3052 310.9760 15.08828194  1308,6917.916,95.438,541.128,538.435,0.0
53249.0,STARLINK-4128,PAYLOAD,2022-10-03 14:00:01,15.0888157,0.0001894,53.2178,59.5393,48.7585,329.7318,-0.00071395,-0.00011646,0.0,0 STARLINK-4128,1 53249U 22086H   22276.58334491 -.00011646  00000-0 -71395-3 0  9995,2 53249  53.2178  59.5393 0001894  48.7585 329.7318 15.08881570  1304,6917.753000000002,95.435,540.929,538.308,0.0
53249.0,STARLINK-4128,PAYLOAD,2022-10-03 22:00:00,15.08892485,0.0001921,53.2173,58.0435,41.941,348.1869,-0.0016537,-0.00026549,0.0,0 STARLINK-4128,1 53249U 22086H   22276.91667824 -.00026549  00000-0 -16537-2 0  9995,2 53249  53.2173  58.0435 0001921  41.9410 348.1869 15.08892485 11756,6917.72,95.434,540.914,538.256,0.0
53249.0,STARLINK-4128,PAYLOAD,2022-10-04 14:00:01,15.08867743,0.0001751,53.2174,55.0501,41.1131,12.2711,-0.0037014,-0.00058761,0.0,0 STARLINK-4128,1 53249U 22086H   22277.58334491 -.00058761  00000-0 -37014-2 0  9994,2 53249  53.2174  55.0501 0001751  41.1131  12.2711 15.08867743  1305,6917.795999999999,95.436,540.872,538.4490000000002,0.0
53249.0,STARLINK-4128,PAYLOAD,2022-10-04 22:00:00,15.0884939,0.0001865999999999,53.2172,53.554,35.8331,29.1532,-0.0013495,-0.00021707,0.0,0 STARLINK-4128,1 53249U 22086H   22277.91667824 -.00021707  00000-0 -13495-2 0  9997,2 53249  53.2172  53.5540 0001866  35.8331  29.1532 15.08849390  1304,6917.852,95.437,541.008,538.4259999999998,0.0
53249.0,STARLINK-4128,PAYLOAD,2022-10-05 06:00:00,15.08811035,0.0001763,53.2173,52.0559,42.9744,33.6163,0.0026143,0.00041531,0.0,0 STARLINK-4128,1 53249U 22086H   22278.25001157  .00041531  00000-0  26143-2 0  9995,2 53249  53.2173  52.0559 0001763  42.9744  33.6163 15.08811035 11959,6917.969,95.439,541.054,538.614,0.0
53249.0,STARLINK-4128,PAYLOAD,2022-10-05 14:00:01,15.08835049,0.0001986999999999,53.2175,50.5608,43.331,44.9028,-0.001197,-0.00019286,0.0,0 STARLINK-4128,1 53249U 22086H   22278.58335648 -.00019286  00000-0 -11970-2 0  9992,2 53249  53.2175  50.5608 0001987  43.3310  44.9028 15.08835049  1305,6917.896,95.438,541.135,538.386,0.0
53249.0,STARLINK-4128,PAYLOAD,2022-10-05 22:00:00,15.08844298,0.0002077,53.2175,49.0647,38.666,61.0809,-0.001108,-0.00017881,0.0,0 STARLINK-4128,1 53249U 22086H   22278.91667824 -.00017881  00000-0 -11080-2 0  9994,2 53249  53.2175  49.0647 0002077  38.6660  61.0809 15.08844298  1300,6917.8669999999975,95.437,541.169,538.295,0.0
53249.0,STARLINK-4128,PAYLOAD,2022-10-06 14:00:01,15.0885983,0.0002044,53.218,46.0716,40.2476,82.6804,-0.0010609999999999,-0.00017144,0.0,0 STARLINK-4128,1 53249U 22086H   22279.58334491 -.00017144  00000-0 -10610-2 0  9999,2 53249  53.2180  46.0716 0002044  40.2476  82.6804 15.08859830  1300,6917.82,95.436,541.099,538.271,0.0
53249.0,STARLINK-4128,PAYLOAD,2022-10-06 22:42:55,15.08867752,0.0002046999999999,53.2182,44.4414,35.8482,260.6102,-0.00087472,-0.00014193,0.0,0 STARLINK-4128,1 53249U 22086H   22279.94646991 -.00014193  00000-0 -87472-3 0  9992,2 53249  53.2182  44.4414 0002047  35.8482 260.6102 15.08867752  1300,6917.795999999999,95.436,541.077,538.244,0.0
53249.0,STARLINK-4128,PAYLOAD,2022-10-07 00:00:00,15.0887276,0.0002004,53.2183,44.2007,36.362,191.0869,-0.0016208,-0.00026014,0.0,0 STARLINK-4128,1 53249U 22086H   22280.00001157 -.00026014  00000-0 -16208-2 0  9993,2 53249  53.2183  44.2007 0002004  36.3620 191.0869 15.08872760 12214,6917.78,95.435,541.0319999999998,538.259,0.0
53249.0,STARLINK-4128,PAYLOAD,2022-10-07 14:00:01,15.08852326,0.0002119,53.2185,41.5819,35.9426,121.8452,-0.00096656,-0.00015644,0.0,0 STARLINK-4128,1 53249U 22086H   22280.58334491 -.00015644  00000-0 -96656-3 0  9999,2 53249  53.2185  41.5819 0002119  35.9426 121.8452 15.08852326  1306,6917.843000000003,95.437,541.174,538.242,0.0
53249.0,STARLINK-4128,PAYLOAD,2022-10-07 22:00:00,15.08859303,0.0002141,53.2188,40.0861,35.5295,133.8443,-0.0041723,-0.00066118,0.0,0 STARLINK-4128,1 53249U 22086H   22280.91667824 -.00066118  00000-0 -41723-2 0  9991,2 53249  53.2188  40.0861 0002141  35.5295 133.8443 15.08859303  1300,6917.821,95.436,541.1669999999998,538.205,0.0
53249.0,STARLINK-4128,PAYLOAD,2022-10-08 06:00:00,15.087825699999998,0.0002006999999999,53.2192,38.5884,41.4867,139.485,0.0037884999999999,0.00060428,0.0,0 STARLINK-4128,1 53249U 22086H   22281.25001157  .00060428  00000-0  37885-2 0  9990,2 53249  53.2192  38.5884 0002007  41.4867 139.4850 15.08782570 12402,6918.056,95.441,541.309,538.5319999999998,0.0
53249.0,STARLINK-4128,PAYLOAD,2022-10-08 14:00:01,15.08826513,0.00022,53.2193,37.0937,38.5957,153.9309,0.00070485,0.00010943,0.0,0 STARLINK-4128,1 53249U 22086H   22281.58334491  .00010943  00000-0  70485-3 0  9997,2 53249  53.2193  37.0937 0002200  38.5957 153.9309 15.08826513  1301,6917.922,95.438,541.309,538.265,0.0
53249.0,STARLINK-4128,PAYLOAD,2022-10-08 22:00:00,15.08867023,0.000217,53.2192,35.5973,35.8749,168.2351,-0.0023524,-0.00037561,0.0,0 STARLINK-4128,1 53249U 22086H   22281.91667824 -.00037561  00000-0 -23524-2 0  9991,2 53249  53.2192  35.5973 0002170  35.8749 168.2351 15.08867023 12509,6917.7980000000025,95.436,541.164,538.1619999999998,0.0
53249.0,STARLINK-4128,PAYLOAD,2022-10-09 14:00:01,15.0883987,0.0002118,53.2195,32.6052,33.5197,193.7763,0.0002897,4.325e-05,0.0,0 STARLINK-4128,1 53249U 22086H   22282.58334491  .00004325  00000-0  28970-3 0  9997,2 53249  53.2195  32.6052 0002118  33.5197 193.7763 15.08839870  1307,6917.880999999999,95.438,541.211,538.281,0.0
53249.0,STARLINK-4128,PAYLOAD,2022-10-09 22:00:00,15.08875644,0.0002174999999999,53.2181,31.1026,30.3524,208.5229,-0.0071218,-0.00111988,0.0,0 STARLINK-4128,1 53249U 22086H   22282.91667824 -.00111988  00000-0 -71218-2 0  9991,2 53249  53.2181  31.1026 0002175  30.3524 208.5229 15.08875644  1300,6917.771,95.435,541.141,538.132,0.0
